CCSDS_OEM_VERS = 2.0  
CREATION_DATE  = 2023-06-30T06:56:41
ORIGINATOR     = ESOC/OPS-GFA                            
 
 



META_START
OBJECT_NAME          = LISA                                    
OBJECT_ID            = -1000                                   
CENTER_NAME          = SUN                     
REF_FRAME            = EME2000 
TIME_SYSTEM          = TDB
START_TIME           = 2035-09-12T12:00:00.00000000            
STOP_TIME            = 2046-06-13T01:04:47.99999985            
INTERPOLATION        = HERMITE                                 
INTERPOLATION_DEGREE = 7                                       
META_STOP

2040-12-15T22:29:01.69587612    63129312.536538   124633770.292549    53923996.322819 -26.9281623  11.7363369   4.8159413    -0.000002494695    -0.000004924959    -0.000002130833
2040-12-19T07:40:17.49469260    55156793.987920   127851851.680644    55239826.754463 -27.6111610  10.2785376   4.1856514    -0.000002177743    -0.000005047707    -0.000002180920
2040-12-22T16:51:33.29350909    46998289.622425   130638854.297882    56369404.557417 -28.2005055   8.7873674   3.5418042    -0.000001854017    -0.000005153258    -0.000002223583
2040-12-26T02:02:49.09232557    38681445.872844   132985764.033547    57309086.333068 -28.6943777   7.2678969   2.8865875    -0.000001524625    -0.000005241318    -0.000002258703
2040-12-29T11:14:04.89114205    30234393.222820   134885059.302945    58055872.275331 -29.0912846   5.7252737   2.2222195    -0.000001190685    -0.000005311654    -0.000002286190
2041-01-01T20:11:51.41103159    21709434.948450   136327361.169714    58606159.063290 -29.3893704   4.1690459   1.5528076    -0.000000854261    -0.000005363972    -0.000002305935
2041-01-05T05:09:37.93092113    13111920.999368   137314105.601058    58960604.834327 -29.5890399   2.6001773   0.8787617    -0.000000515555    -0.000005398380    -0.000002317984
2041-01-08T14:07:24.45081067     4470617.406139   137842370.447239    59118186.299531 -29.6897912   1.0238976   0.2023276    -0.000000175685    -0.000005414821    -0.000002322322
2041-01-11T23:05:10.97070036    -4185610.654804   137910758.271895    59078534.504719 -29.6914481  -0.5545559  -0.4742487     0.000000164231    -0.000005413302    -0.000002318962
2041-01-15T07:33:35.23101140   -12775741.062025   137523143.329478    58843955.625826 -29.5950438  -2.1204501  -1.1446602     0.000000501040    -0.000005394053    -0.000002308027
2041-01-18T16:01:59.49132244   -21323834.803795   136682936.057685    58415719.861391 -29.4013472  -3.6782195  -1.8108136     0.000000835718    -0.000005357235    -0.000002289578
2041-01-22T00:30:23.75163347   -29801810.433753   135393225.768335    57795375.221293 -29.1111302  -5.2227972  -2.4705433     0.000001167200    -0.000005303016    -0.000002263696
2041-01-25T08:58:48.01194451   -38181854.140080   133658560.863887    56985093.023047 -28.7254715  -6.7491733  -3.1217104     0.000001494435    -0.000005231619    -0.000002230484
2041-01-28T17:22:20.03191564   -46428254.457044   131487343.511946    55988759.360614 -28.2462826  -8.2509063  -3.7615688     0.000001816068    -0.000005143415    -0.000002190112
2041-02-01T01:45:52.05188692   -54522585.949322   128885432.686657    54809032.576300 -27.6748935  -9.7247086  -4.3887200     0.000002131424    -0.000005038660    -0.000002142696
2041-02-04T10:09:24.07185820   -62438441.744403   125861600.290809    53449883.178561 -27.0132637 -11.1658430  -5.0011490     0.000002439520    -0.000004917726    -0.000002088402
2041-02-07T18:32:56.09182948   -70150022.126502   122425972.312556    51915857.237341 -26.2636335 -12.5696862  -5.5968920     0.000002739399    -0.000004781030    -0.000002027419
2041-02-11T03:09:51.23990375   -77652637.575656   118578804.931324    50207102.196639 -25.4260818 -13.9354597  -6.1756162     0.000003030928    -0.000004628591    -0.000001959755
2041-02-14T11:46:46.38797787   -84900044.433199   114341899.542117    48333331.269081 -24.5053681 -15.2548217  -6.7337842     0.000003312358    -0.000004461277    -0.000001885797
2041-02-17T20:23:41.53605214   -91868545.762470   109729344.515133    46300771.973387 -23.5045500 -16.5235347  -7.2696044     0.000003582820    -0.000004279642    -0.000001805788
2041-02-21T05:00:36.68412641   -98535367.197194   104756433.555977    44116161.013493 -22.4269323 -17.7375277  -7.7813586     0.000003841481    -0.000004084280    -0.000001719992
2041-02-24T13:58:18.79204437  -104905256.249134    99416055.033253    41776412.331053 -21.2709589 -18.8977406  -8.2694375     0.000004088574    -0.000003874904    -0.000001628282
2041-02-27T22:56:00.89996248  -110927915.603753    93746591.430737    39298378.083699 -20.0449129 -19.9950858  -8.7300122     0.000004322192    -0.000003653002    -0.000001531311
2041-03-03T07:53:43.00788044  -116583504.888714    87766888.443102    36690293.838579 -18.7528281 -21.0260165  -9.1615947     0.000004541612    -0.000003419292    -0.000001429391
2041-03-06T16:51:25.11579840  -121853388.564239    81496794.308015    33960815.249867 -17.3989434 -21.9871991  -9.5627900     0.000004746150    -0.000003174522    -0.000001322851
2041-03-10T01:56:24.63696488  -126727188.812334    74947090.518448    31114645.982377 -15.9855315 -22.8768004  -9.9328305     0.000004935440    -0.000002919084    -0.000001211859
2041-03-13T11:01:24.15813135  -131180577.853096    68148732.601662    28165247.861025 -14.5192104 -23.6904335 -10.2698884     0.000005108572    -0.000002654151    -0.000001096925
2041-03-16T20:06:23.67929783  -135198808.303737    61124288.390522    25122411.259470 -13.0047776 -24.4254490 -10.5728665     0.000005264999    -0.000002380564    -0.000000978416
2041-03-20T05:11:23.20046415  -138768554.574952    53897062.721113    21996231.139939 -11.4471827 -25.0794468 -10.8407752     0.000005404226    -0.000002099191    -0.000000856706
2041-03-23T14:28:41.56633452  -141885234.607912    46472071.722328    18788893.903279  -9.8474295 -25.6516213 -11.0732773     0.000005526095    -0.000001810184    -0.000000731862
2041-03-26T23:45:59.93220490  -144528804.543060    38892104.489503    15518899.438712  -8.2146566 -26.1383189 -11.2688794     0.000005629834    -0.000001515164    -0.000000604584
2041-03-30T09:03:18.29807512  -146690383.345360    31182418.980545    12197144.509340  -6.5542205 -26.5379167 -11.4269286     0.000005715104    -0.000001215069    -0.000000475279
2041-04-02T18:20:36.66394550  -148362670.134712    23368707.815080     8834699.611875  -4.8715692 -26.8490685 -11.5468912     0.000005781617    -0.000000910852    -0.000000344355
2041-04-06T03:26:21.71779569  -149537770.298731    15495784.635590     5450835.665526  -3.1762684 -27.0702908 -11.6282074     0.000005829053    -0.000000604212    -0.000000212546
2041-04-09T12:32:06.77164588  -150216184.472392     7571378.719367     2048861.573829  -1.4698991 -27.2016509 -11.6709188     0.000005857419    -0.000000295405    -0.000000079959
2041-04-12T21:37:51.82549591  -150395496.260892     -378196.824373    -1359925.085721   0.2419531 -27.2426595 -11.6748600     0.000005866598     0.000000014587     0.000000052983
2041-04-16T06:43:36.87934610  -150074923.022200    -8326527.566686    -4764196.314160   1.9536769 -27.1931146 -11.6399891     0.000005856534     0.000000324776     0.000000185856
2041-04-19T15:15:08.09773738  -149262827.034086   -16191618.758454    -8128874.035425   3.6476840 -27.0544037 -11.5670410     0.000005827498     0.000000631998     0.000000317307
2041-04-22T23:46:39.31612849  -147961138.409801   -24003611.012775   -11466892.550448   5.3305298 -26.8268627 -11.4561073     0.000005779544     0.000000937465     0.000000447855
2041-04-26T08:18:10.53451977  -146173886.663861   -31736840.865517   -14767284.057000   6.9967451 -26.5111415 -11.3075102     0.000005712786     0.000001240204     0.000000577083
2041-04-29T16:49:41.75291105  -143906680.244456   -39365873.449476   -18019191.308968   8.6409021 -26.1081709 -11.1216919     0.000005627394     0.000001539250     0.000000704580
2041-05-03T01:16:55.17100126  -141169338.192015   -46858980.177716   -21209092.975093  10.2562070 -25.6196339 -10.8994278     0.000005523699     0.000001833382     0.000000829826
2041-05-06T09:44:08.58909147  -137968753.084493   -54198328.099787   -24329400.379770  11.8388514 -25.0466937 -10.6412469     0.000005401917     0.000002121920     0.000000952529
2041-05-09T18:11:22.00718184  -134315138.855514   -61359719.284521   -27369823.136389  13.3836451 -24.3911064 -10.3479431     0.000005262391     0.000002403929     0.000001072293
2041-05-13T02:38:35.42527205  -130220196.790962   -68319502.711483   -30320317.123735  14.8855052 -23.6548968 -10.0204250     0.000005105520     0.000002678487     0.000001188725
2041-05-16T11:14:03.60359293  -125688998.830994   -75065953.116011   -33175897.049664  16.3419124 -22.8388970  -9.6590692     0.000004931447     0.000002945140     0.000001301631
2041-05-19T19:49:31.78191381  -120742814.677271   -81564563.193876   -35921941.776140  17.7454191 -21.9468571  -9.2655423     0.000004740939     0.000003202525     0.000001410434
2041-05-23T04:24:59.96023470  -115397676.467843   -87793674.143119   -38549295.589835  19.0913380 -20.9815915  -8.8410881     0.000004534565     0.000003449779     0.000001514769
2041-05-26T13:00:28.13855558  -109670950.972059   -93732478.778597   -41049178.431110  20.3751547 -19.9461613  -8.3870545     0.000004312946     0.000003686068     0.000001614282
2041-05-29T21:51:10.61142537  -103561544.691222   -99378320.880642   -43420443.090262  21.5962699 -18.8402898  -7.9033278     0.000004075989     0.000003911273     0.000001708922
2041-06-02T06:41:53.08429531   -97106977.038821  -104692944.783516   -45646991.243916  22.7463753 -17.6706930  -7.3928527     0.000003825104     0.000004123852     0.000001798039
2041-06-05T15:32:35.55716510   -90328494.088019  -109658349.521319   -47721276.543842  23.8215299 -16.4411549  -6.8572826     0.000003561073     0.000004323060     0.000001881320
